[{"OBJECT_NAME":"STARLINK-1331","OBJECT_ID":"2020-025AZ","EPOCH":"2026-03-09T23:01:45.024960","MEAN_MOTION":15.48337818,"ECCENTRICITY":0.00048402,"INCLINATION":53.0535,"RA_OF_ASC_NODE":63.873,"ARG_OF_PERICENTER":82.5874,"MEAN_ANOMALY":277.5683,"EPHEMERIS_TYPE":0,"CLASSIFICATION_TYPE":"U","NORAD_CAT_ID":45578,"ELEMENT_SET_NO":999,"REV_AT_EPOCH":32572,"BSTAR":0.0018648663,"MEAN_MOTION_DOT":0.0010115,"MEAN_MOTION_DDOT":0},{"OBJECT_NAME":"STARLINK-1471","OBJECT_ID":"2020-038F","EPOCH":"2026-03-09T12:24:52.214400","MEAN_MOTION":15.48889608,"ECCENTRICITY":7.356e-5,"INCLINATION":53.0461,"RA_OF_ASC_NODE":142.8505,"ARG_OF_PERICENTER":252.2719,"MEAN_ANOMALY":107.8208,"EPHEMERIS_TYPE":0,"CLASSIFICATION_TYPE":"U","NORAD_CAT_ID":45735,"ELEMENT_SET_NO":999,"REV_AT_EPOCH":31750,"BSTAR":0.00048031004,"MEAN_MOTION_DOT":0.00025966,"MEAN_MOTION_DDOT":0}]
